[{"OBJECT_NAME":"INNOSAT 3 (RS92S0)","OBJECT_ID":"2025-155U","EPOCH":"2026-03-06T06:33:02.218176","MEAN_MOTION":15.36369264,"ECCENTRICITY":0.000585,"INCLINATION":97.4424,"RA_OF_ASC_NODE":34.9256,"ARG_OF_PERICENTER":155.9757,"MEAN_ANOMALY":204.1761,"EPHEMERIS_TYPE":0,"CLASSIFICATION_TYPE":"U","NORAD_CAT_ID":64894,"ELEMENT_SET_NO":999,"REV_AT_EPOCH":6512,"BSTAR":0.0011688294,"MEAN_MOTION_DOT":0.00041571,"MEAN_MOTION_DDOT":0}]
