INNOSAT 3 (RS92S0)      
1 64894U 25155U   26065.27294234  .00041571  00000+0  11688-2 0  9994
2 64894  97.4424  34.9256 0005850 155.9757 204.1761 15.36369264 65129
